[{"OBJECT_NAME":"ONEWEB-0435","OBJECT_ID":"2022-012L","EPOCH":"2026-03-02T21:44:35.890080","MEAN_MOTION":13.10370388,"ECCENTRICITY":0.00017134,"INCLINATION":87.8758,"RA_OF_ASC_NODE":57.4457,"ARG_OF_PERICENTER":100.4483,"MEAN_ANOMALY":259.6838,"EPHEMERIS_TYPE":0,"CLASSIFICATION_TYPE":"U","NORAD_CAT_ID":51632,"ELEMENT_SET_NO":999,"REV_AT_EPOCH":19539,"BSTAR":0.001252975,"MEAN_MOTION_DOT":4.5e-6,"MEAN_MOTION_DDOT":0},{"OBJECT_NAME":"ONEWEB-0436","OBJECT_ID":"2022-012M","EPOCH":"2026-03-02T21:38:16.283904","MEAN_MOTION":13.17649565,"ECCENTRICITY":0.00018587,"INCLINATION":87.9149,"RA_OF_ASC_NODE":26.9444,"ARG_OF_PERICENTER":88.8792,"MEAN_ANOMALY":271.2552,"EPHEMERIS_TYPE":0,"CLASSIFICATION_TYPE":"U","NORAD_CAT_ID":51633,"ELEMENT_SET_NO":999,"REV_AT_EPOCH":19968,"BSTAR":-5.0531208e-5,"MEAN_MOTION_DOT":-7.0e-8,"MEAN_MOTION_DDOT":0},{"OBJECT_NAME":"ONEWEB-0438","OBJECT_ID":"2022-012N","EPOCH":"2026-03-02T23:10:38.786016","MEAN_MOTION":13.10375083,"ECCENTRICITY":0.0001804,"INCLINATION":87.8761,"RA_OF_ASC_NODE":57.4342,"ARG_OF_PERICENTER":80.8911,"MEAN_ANOMALY":279.2421,"EPHEMERIS_TYPE":0,"CLASSIFICATION_TYPE":"U","NORAD_CAT_ID":51634,"ELEMENT_SET_NO":999,"REV_AT_EPOCH":19543,"BSTAR":0.0016899291,"MEAN_MOTION_DOT":6.03e-6,"MEAN_MOTION_DDOT":0},{"OBJECT_NAME":"ONEWEB-0439","OBJECT_ID":"2022-012P","EPOCH":"2026-03-02T23:15:26.357184","MEAN_MOTION":13.10373698,"ECCENTRICITY":0.00017572,"INCLINATION":87.8759,"RA_OF_ASC_NODE":57.4228,"ARG_OF_PERICENTER":87.1736,"MEAN_ANOMALY":272.9593,"EPHEMERIS_TYPE":0,"CLASSIFICATION_TYPE":"U","NORAD_CAT_ID":51635,"ELEMENT_SET_NO":999,"REV_AT_EPOCH":19541,"BSTAR":0.0017606097,"MEAN_MOTION_DOT":6.27e-6,"MEAN_MOTION_DDOT":0},{"OBJECT_NAME":"ONEWEB-0442","OBJECT_ID":"2022-012Q","EPOCH":"2026-03-02T21:27:21.308832","MEAN_MOTION":13.17648353,"ECCENTRICITY":0.00019516,"INCLINATION":87.9137,"RA_OF_ASC_NODE":26.9858,"ARG_OF_PERICENTER":64.0149,"MEAN_ANOMALY":296.1183,"EPHEMERIS_TYPE":0,"CLASSIFICATION_TYPE":"U","NORAD_CAT_ID":51636,"ELEMENT_SET_NO":999,"REV_AT_EPOCH":19967,"BSTAR":4.2939254e-5,"MEAN_MOTION_DOT":3.0e-7,"MEAN_MOTION_DDOT":0},{"OBJECT_NAME":"ONEWEB-0443","OBJECT_ID":"2022-012R","EPOCH":"2026-03-02T21:55:17.371200","MEAN_MOTION":13.17649915,"ECCENTRICITY":0.00015144,"INCLINATION":87.9139,"RA_OF_ASC_NODE":26.9844,"ARG_OF_PERICENTER":80.253,"MEAN_ANOMALY":279.8773,"EPHEMERIS_TYPE":0,"CLASSIFICATION_TYPE":"U","NORAD_CAT_ID":51637,"ELEMENT_SET_NO":999,"REV_AT_EPOCH":19972,"BSTAR":-0.00027804878,"MEAN_MOTION_DOT":-9.5e-7,"MEAN_MOTION_DDOT":0},{"OBJECT_NAME":"ONEWEB-0444","OBJECT_ID":"2022-012S","EPOCH":"2026-03-02T23:01:04.716768","MEAN_MOTION":13.10376196,"ECCENTRICITY":0.0001791,"INCLINATION":87.8765,"RA_OF_ASC_NODE":57.4235,"ARG_OF_PERICENTER":88.2207,"MEAN_ANOMALY":271.9126,"EPHEMERIS_TYPE":0,"CLASSIFICATION_TYPE":"U","NORAD_CAT_ID":51638,"ELEMENT_SET_NO":999,"REV_AT_EPOCH":19542,"BSTAR":0.00097501049,"MEAN_MOTION_DOT":3.53e-6,"MEAN_MOTION_DDOT":0},{"OBJECT_NAME":"ONEWEB-0445","OBJECT_ID":"2022-012T","EPOCH":"2026-03-02T21:42:12.805632","MEAN_MOTION":13.10370642,"ECCENTRICITY":0.0002099,"INCLINATION":87.8771,"RA_OF_ASC_NODE":57.413,"ARG_OF_PERICENTER":87.748,"MEAN_ANOMALY":272.3888,"EPHEMERIS_TYPE":0,"CLASSIFICATION_TYPE":"U","NORAD_CAT_ID":51639,"ELEMENT_SET_NO":999,"REV_AT_EPOCH":19542,"BSTAR":0.0013636801,"MEAN_MOTION_DOT":4.89e-6,"MEAN_MOTION_DDOT":0},{"OBJECT_NAME":"ONEWEB-0446","OBJECT_ID":"2022-012U","EPOCH":"2026-03-02T22:58:40.951488","MEAN_MOTION":13.10376318,"ECCENTRICITY":0.00020058,"INCLINATION":87.8764,"RA_OF_ASC_NODE":57.44,"ARG_OF_PERICENTER":85.8622,"MEAN_ANOMALY":274.2734,"EPHEMERIS_TYPE":0,"CLASSIFICATION_TYPE":"U","NORAD_CAT_ID":51640,"ELEMENT_SET_NO":999,"REV_AT_EPOCH":19541,"BSTAR":0.00071650779,"MEAN_MOTION_DOT":2.63e-6,"MEAN_MOTION_DDOT":0},{"OBJECT_NAME":"ONEWEB-0448","OBJECT_ID":"2022-012V","EPOCH":"2026-03-02T23:05:51.791136","MEAN_MOTION":13.10375349,"ECCENTRICITY":0.00017879,"INCLINATION":87.8766,"RA_OF_ASC_NODE":57.4374,"ARG_OF_PERICENTER":88.3557,"MEAN_ANOMALY":271.7775,"EPHEMERIS_TYPE":0,"CLASSIFICATION_TYPE":"U","NORAD_CAT_ID":51641,"ELEMENT_SET_NO":999,"REV_AT_EPOCH":19538,"BSTAR":0.0012555652,"MEAN_MOTION_DOT":4.51e-6,"MEAN_MOTION_DDOT":0},{"OBJECT_NAME":"ONEWEB-0449","OBJECT_ID":"2022-012W","EPOCH":"2026-03-02T23:13:02.216064","MEAN_MOTION":13.10374371,"ECCENTRICITY":0.0001635,"INCLINATION":87.8771,"RA_OF_ASC_NODE":57.4141,"ARG_OF_PERICENTER":73.3151,"MEAN_ANOMALY":286.8156,"EPHEMERIS_TYPE":0,"CLASSIFICATION_TYPE":"U","NORAD_CAT_ID":51642,"ELEMENT_SET_NO":999,"REV_AT_EPOCH":19539,"BSTAR":0.0016923071,"MEAN_MOTION_DOT":6.03e-6,"MEAN_MOTION_DDOT":0},{"OBJECT_NAME":"ONEWEB-0451","OBJECT_ID":"2022-012X","EPOCH":"2026-03-02T21:33:25.785504","MEAN_MOTION":13.17649136,"ECCENTRICITY":0.00017899,"INCLINATION":87.9147,"RA_OF_ASC_NODE":26.9404,"ARG_OF_PERICENTER":79.0091,"MEAN_ANOMALY":281.1242,"EPHEMERIS_TYPE":0,"CLASSIFICATION_TYPE":"U","NORAD_CAT_ID":51643,"ELEMENT_SET_NO":999,"REV_AT_EPOCH":19966,"BSTAR":9.51751e-6,"MEAN_MOTION_DOT":1.7e-7,"MEAN_MOTION_DDOT":0},{"OBJECT_NAME":"ONEWEB-0452","OBJECT_ID":"2022-012Y","EPOCH":"2026-03-02T21:31:00.371712","MEAN_MOTION":13.17649342,"ECCENTRICITY":0.00015998,"INCLINATION":87.9137,"RA_OF_ASC_NODE":26.9878,"ARG_OF_PERICENTER":79.0263,"MEAN_ANOMALY":281.1049,"EPHEMERIS_TYPE":0,"CLASSIFICATION_TYPE":"U","NORAD_CAT_ID":51644,"ELEMENT_SET_NO":999,"REV_AT_EPOCH":19967,"BSTAR":6.530018e-5,"MEAN_MOTION_DOT":3.8e-7,"MEAN_MOTION_DDOT":0},{"OBJECT_NAME":"ONEWEB-0456","OBJECT_ID":"2022-012AA","EPOCH":"2026-03-02T21:37:25.186944","MEAN_MOTION":13.10370894,"ECCENTRICITY":0.0001833,"INCLINATION":87.8778,"RA_OF_ASC_NODE":57.4055,"ARG_OF_PERICENTER":92.7184,"MEAN_ANOMALY":267.4153,"EPHEMERIS_TYPE":0,"CLASSIFICATION_TYPE":"U","NORAD_CAT_ID":51646,"ELEMENT_SET_NO":999,"REV_AT_EPOCH":19542,"BSTAR":0.0015875467,"MEAN_MOTION_DOT":5.67e-6,"MEAN_MOTION_DDOT":0},{"OBJECT_NAME":"ONEWEB-0457","OBJECT_ID":"2022-012AB","EPOCH":"2026-03-02T22:53:54.443040","MEAN_MOTION":13.10378889,"ECCENTRICITY":0.00021271,"INCLINATION":87.8766,"RA_OF_ASC_NODE":57.4281,"ARG_OF_PERICENTER":77.3607,"MEAN_ANOMALY":282.7758,"EPHEMERIS_TYPE":0,"CLASSIFICATION_TYPE":"U","NORAD_CAT_ID":51647,"ELEMENT_SET_NO":999,"REV_AT_EPOCH":19543,"BSTAR":0.00011545497,"MEAN_MOTION_DOT":5.3e-7,"MEAN_MOTION_DDOT":0},{"OBJECT_NAME":"ONEWEB-0458","OBJECT_ID":"2022-012AC","EPOCH":"2026-03-02T21:35:02.491296","MEAN_MOTION":13.10371932,"ECCENTRICITY":0.00017098,"INCLINATION":87.8766,"RA_OF_ASC_NODE":57.4197,"ARG_OF_PERICENTER":86.9203,"MEAN_ANOMALY":273.212,"EPHEMERIS_TYPE":0,"CLASSIFICATION_TYPE":"U","NORAD_CAT_ID":51648,"ELEMENT_SET_NO":999,"REV_AT_EPOCH":19538,"BSTAR":0.0018648294,"MEAN_MOTION_DOT":6.64e-6,"MEAN_MOTION_DDOT":0},{"OBJECT_NAME":"ONEWEB-0461","OBJECT_ID":"2022-012AD","EPOCH":"2026-03-02T22:02:34.494720","MEAN_MOTION":13.17650295,"ECCENTRICITY":0.0002028,"INCLINATION":87.9156,"RA_OF_ASC_NODE":26.9508,"ARG_OF_PERICENTER":80.7432,"MEAN_ANOMALY":279.3929,"EPHEMERIS_TYPE":0,"CLASSIFICATION_TYPE":"U","NORAD_CAT_ID":51649,"ELEMENT_SET_NO":999,"REV_AT_EPOCH":19989,"BSTAR":-0.00010034804,"MEAN_MOTION_DOT":-2.6e-7,"MEAN_MOTION_DDOT":0}]
