ONEWEB-0435             
1 51632U 22012L   26061.90597095  .00000450  00000+0  12530-2 0  9994
2 51632  87.8758  57.4457 0001713 100.4483 259.6838 13.10370388195398
ONEWEB-0436             
1 51633U 22012M   26061.90157736 -.00000007  00000+0 -50531-4 0  9994
2 51633  87.9149  26.9444 0001858  88.8792 271.2552 13.17649565199685
ONEWEB-0438             
1 51634U 22012N   26061.96572669  .00000603  00000+0  16899-2 0  9994
2 51634  87.8761  57.4342 0001804  80.8911 279.2421 13.10375083195433
ONEWEB-0439             
1 51635U 22012P   26061.96905506  .00000627  00000+0  17606-2 0  9998
2 51635  87.8759  57.4228 0001757  87.1736 272.9593 13.10373698195414
ONEWEB-0442             
1 51636U 22012Q   26061.89399663  .00000030  00000+0  42939-4 0  9999
2 51636  87.9137  26.9858 0001951  64.0149 296.1183 13.17648353199679
ONEWEB-0443             
1 51637U 22012R   26061.91339550 -.00000095  00000+0 -27805-3 0  9999
2 51637  87.9139  26.9844 0001514  80.2530 279.8773 13.17649915199720
ONEWEB-0444             
1 51638U 22012S   26061.95908237  .00000353  00000+0  97501-3 0  9993
2 51638  87.8765  57.4235 0001791  88.2207 271.9126 13.10376196195423
ONEWEB-0445             
1 51639U 22012T   26061.90431488  .00000489  00000+0  13637-2 0  9995
2 51639  87.8771  57.4130 0002099  87.7480 272.3888 13.10370642195424
ONEWEB-0446             
1 51640U 22012U   26061.95741842  .00000263  00000+0  71651-3 0  9991
2 51640  87.8764  57.4400 0002005  85.8622 274.2734 13.10376318195418
ONEWEB-0448             
1 51641U 22012V   26061.96240499  .00000451  00000+0  12556-2 0  9992
2 51641  87.8766  57.4374 0001787  88.3557 271.7775 13.10375349195388
ONEWEB-0449             
1 51642U 22012W   26061.96738676  .00000603  00000+0  16923-2 0  9993
2 51642  87.8771  57.4141 0001635  73.3151 286.8156 13.10374371195398
ONEWEB-0451             
1 51643U 22012X   26061.89821511  .00000017  00000+0  95175-5 0  9995
2 51643  87.9147  26.9404 0001789  79.0091 281.1242 13.17649136199665
ONEWEB-0452             
1 51644U 22012Y   26061.89653208  .00000038  00000+0  65300-4 0  9991
2 51644  87.9137  26.9878 0001599  79.0263 281.1049 13.17649342199675
ONEWEB-0456             
1 51646U 22012AA  26061.90098596  .00000567  00000+0  15875-2 0  9995
2 51646  87.8778  57.4055 0001833  92.7184 267.4153 13.10370894195426
ONEWEB-0457             
1 51647U 22012AB  26061.95410235  .00000053  00000+0  11545-3 0  9990
2 51647  87.8766  57.4281 0002127  77.3607 282.7758 13.10378889195435
ONEWEB-0458             
1 51648U 22012AC  26061.89933439  .00000664  00000+0  18648-2 0  9998
2 51648  87.8766  57.4197 0001709  86.9203 273.2120 13.10371932195389
ONEWEB-0461             
1 51649U 22012AD  26061.91845480 -.00000026  00000+0 -10035-3 0  9997
2 51649  87.9156  26.9508 0002028  80.7432 279.3929 13.17650295199895
